start=new Date('2023-06-04T00:00:00.000Z').valueOf();
sats=[{"RCS_SIZE":"LARGE","MEAN_ELEMENT_THEORY":"SGP4","CLASSIFICATION_TYPE":"U","ARG_OF_PERICENTER":"91.6821","APOAPSIS":"540.470","EPHEMERIS_TYPE":"0","BSTAR":"0.00013843000000","OBJECT_ID":"2022-001F","MEAN_ANOMALY":"268.4291","NORAD_CAT_ID":"50808","GP_ID":"233142756","MEAN_MOTION":"15.08840617","DECAY_DATE":null,"REF_FRAME":"TEME","PERIOD":"95.438","FILE":"3924324","OBJECT_TYPE":"PAYLOAD","SEMIMAJOR_AXIS":"6917.879","RA_OF_ASC_NODE":"12.4927","OBJECT_NAME":"STARLINK-3355","MEAN_MOTION_DDOT":"0.0000000000000","CENTER_NAME":"EARTH","TIME_SYSTEM":"UTC","LAUNCH_DATE":"2022-01-06","REV_AT_EPOCH":"7809","SITE":"AFETR","MEAN_MOTION_DOT":"0.00001916","EPOCH":"2023-06-03T20:15:49.006080","PERIAPSIS":"539.017","TLE_LINE1":"1 50808U 22001F   23154.84431720  .00001916  00000-0  13843-3 0  9999","TLE_LINE2":"2 50808  53.2170  12.4927 0001050  91.6821 268.4291 15.08840617 78095","ELEMENT_SET_NO":"999","COUNTRY_CODE":"US","INCLINATION":"53.2170","ECCENTRICITY":"0.00010500"},{"NORAD_CAT_ID":"50809","MEAN_ANOMALY":"261.6888","BSTAR":"0.00007389800000","OBJECT_ID":"2022-001G","EPHEMERIS_TYPE":"0","APOAPSIS":"540.332","OBJECT_TYPE":"PAYLOAD","FILE":"3924324","PERIOD":"95.437","REF_FRAME":"TEME","DECAY_DATE":null,"MEAN_MOTION":"15.08845430","GP_ID":"233141504","MEAN_ELEMENT_THEORY":"SGP4","RCS_SIZE":"LARGE","ARG_OF_PERICENTER":"98.4203","CLASSIFICATION_TYPE":"U","MEAN_MOTION_DOT":"0.00000889","REV_AT_EPOCH":"7810","SITE":"AFETR","LAUNCH_DATE":"2022-01-06","TIME_SYSTEM":"UTC","CENTER_NAME":"EARTH","MEAN_MOTION_DDOT":"0.0000000000000","ECCENTRICITY":"0.00008720","INCLINATION":"53.2176","COUNTRY_CODE":"US","ELEMENT_SET_NO":"999","TLE_LINE2":"2 50809  53.2176  12.1787 0000872  98.4203 261.6888 15.08845430 78100","TLE_LINE1":"1 50809U 22001G   23154.91423350  .00000889  00000-0  73898-4 0  9993","PERIAPSIS":"539.126","EPOCH":"2023-06-03T21:56:29.774400","OBJECT_NAME":"STARLINK-3232","RA_OF_ASC_NODE":"12.1787","SEMIMAJOR_AXIS":"6917.864"},{"PERIAPSIS":"539.019","EPOCH":"2023-06-03T21:45:54.422496","TLE_LINE2":"2 50810  53.2166  12.2134 0001069  88.7953 271.3162 15.08835825 78101","TLE_LINE1":"1 50810U 22001H   23154.90687989  .00002432  00000-0  17084-3 0  9994","ELEMENT_SET_NO":"999","COUNTRY_CODE":"US","INCLINATION":"53.2166","ECCENTRICITY":"0.00010690","MEAN_MOTION_DDOT":"0.0000000000000","CENTER_NAME":"EARTH","LAUNCH_DATE":"2022-01-06","TIME_SYSTEM":"UTC","REV_AT_EPOCH":"7810","SITE":"AFETR","MEAN_MOTION_DOT":"0.00002432","SEMIMAJOR_AXIS":"6917.893","RA_OF_ASC_NODE":"12.2134","OBJECT_NAME":"STARLINK-3348","GP_ID":"233142255","DECAY_DATE":null,"MEAN_MOTION":"15.08835825","PERIOD":"95.438","REF_FRAME":"TEME","OBJECT_TYPE":"PAYLOAD","FILE":"3924324","APOAPSIS":"540.498","EPHEMERIS_TYPE":"0","BSTAR":"0.00017084000000","OBJECT_ID":"2022-001H","MEAN_ANOMALY":"271.3162","NORAD_CAT_ID":"50810","CLASSIFICATION_TYPE":"U","ARG_OF_PERICENTER":"88.7953","RCS_SIZE":"LARGE","MEAN_ELEMENT_THEORY":"SGP4"},{"ARG_OF_PERICENTER":"85.7846","CLASSIFICATION_TYPE":"U","MEAN_ELEMENT_THEORY":"SGP4","RCS_SIZE":"LARGE","FILE":"3924324","OBJECT_TYPE":"PAYLOAD","PERIOD":"95.437","REF_FRAME":"TEME","DECAY_DATE":null,"MEAN_MOTION":"15.08844234","GP_ID":"233142506","NORAD_CAT_ID":"50811","MEAN_ANOMALY":"274.3256","OBJECT_ID":"2022-001J","BSTAR":"0.00010510000000","EPHEMERIS_TYPE":"0","APOAPSIS":"540.395","OBJECT_NAME":"STARLINK-3347","RA_OF_ASC_NODE":"12.2432","SEMIMAJOR_AXIS":"6917.867","ECCENTRICITY":"0.00009580","INCLINATION":"53.2183","COUNTRY_CODE":"US","ELEMENT_SET_NO":"999","TLE_LINE2":"2 50811  53.2183  12.2432 0000958  85.7846 274.3256 15.08844234 78107","TLE_LINE1":"1 50811U 22001J   23154.89951473  .00001385  00000-0  10510-3 0  9998","PERIAPSIS":"539.070","EPOCH":"2023-06-03T21:35:18.072672","MEAN_MOTION_DOT":"0.00001385","SITE":"AFETR","REV_AT_EPOCH":"7810","TIME_SYSTEM":"UTC","LAUNCH_DATE":"2022-01-06","MEAN_MOTION_DDOT":"0.0000000000000","CENTER_NAME":"EARTH"},{"INCLINATION":"53.2169","ECCENTRICITY":"0.00010890","ELEMENT_SET_NO":"999","COUNTRY_CODE":"US","PERIAPSIS":"538.978","EPOCH":"2023-06-03T20:58:13.323648","TLE_LINE2":"2 50812  53.2169  12.4687 0001089  92.2719 267.8398 15.08844580 78090","TLE_LINE1":"1 50812U 22001K   23154.87376532  .00000516  00000-0  50480-4 0  9990","MEAN_MOTION_DOT":"0.00000516","REV_AT_EPOCH":"7809","SITE":"AFETR","LAUNCH_DATE":"2022-01-06","TIME_SYSTEM":"UTC","MEAN_MOTION_DDOT":"0.0000000000000","CENTER_NAME":"EARTH","RA_OF_ASC_NODE":"12.4687","OBJECT_NAME":"STARLINK-3338","SEMIMAJOR_AXIS":"6917.866","FILE":"3924324","OBJECT_TYPE":"PAYLOAD","MEAN_MOTION":"15.08844580","DECAY_DATE":null,"PERIOD":"95.437","REF_FRAME":"TEME","GP_ID":"233143257","MEAN_ANOMALY":"267.8398","NORAD_CAT_ID":"50812","EPHEMERIS_TYPE":"0","BSTAR":"0.00005048000000","OBJECT_ID":"2022-001K","APOAPSIS":"540.485","ARG_OF_PERICENTER":"92.2719","CLASSIFICATION_TYPE":"U","MEAN_ELEMENT_THEORY":"SGP4","RCS_SIZE":"LARGE"},{"OBJECT_NAME":"STARLINK-3349","RA_OF_ASC_NODE":"12.2271","SEMIMAJOR_AXIS":"6917.854","MEAN_MOTION_DOT":"-0.00000313","SITE":"AFETR","REV_AT_EPOCH":"7810","LAUNCH_DATE":"2022-01-06","TIME_SYSTEM":"UTC","MEAN_MOTION_DDOT":"0.0000000000000","CENTER_NAME":"EARTH","ECCENTRICITY":"0.00012530","INCLINATION":"53.2185","COUNTRY_CODE":"US","ELEMENT_SET_NO":"999","TLE_LINE1":"1 50813U 22001L   23154.89214484 -.00000313  00000-0 -16057-5 0  9990","TLE_LINE2":"2 50813  53.2185  12.2271 0001253  91.1538 268.9598 15.08848752 78107","EPOCH":"2023-06-03T21:24:41.314176","PERIAPSIS":"538.852","MEAN_ELEMENT_THEORY":"SGP4","RCS_SIZE":"LARGE","ARG_OF_PERICENTER":"91.1538","CLASSIFICATION_TYPE":"U","NORAD_CAT_ID":"50813","MEAN_ANOMALY":"268.9598","OBJECT_ID":"2022-001L","BSTAR":"-0.00000160570000","EPHEMERIS_TYPE":"0","APOAPSIS":"540.585","OBJECT_TYPE":"PAYLOAD","FILE":"3924324","REF_FRAME":"TEME","PERIOD":"95.437","MEAN_MOTION":"15.08848752","DECAY_DATE":null,"GP_ID":"233142005"},{"SEMIMAJOR_AXIS":"6917.881","OBJECT_NAME":"STARLINK-3324","RA_OF_ASC_NODE":"22.3483","COUNTRY_CODE":"US","ELEMENT_SET_NO":"999","ECCENTRICITY":"0.00010160","INCLINATION":"53.2165","TLE_LINE2":"2 50814  53.2165  22.3483 0001016 103.5847 256.5258 15.08839954 77964","TLE_LINE1":"1 50814U 22001M   23154.87651765  .00003150  00000-0  21590-3 0  9992","PERIAPSIS":"539.043","EPOCH":"2023-06-03T21:02:11.124960","SITE":"AFETR","REV_AT_EPOCH":"7796","MEAN_MOTION_DOT":"0.00003150","CENTER_NAME":"EARTH","MEAN_MOTION_DDOT":"0.0000000000000","LAUNCH_DATE":"2022-01-06","TIME_SYSTEM":"UTC","ARG_OF_PERICENTER":"103.5847","CLASSIFICATION_TYPE":"U","MEAN_ELEMENT_THEORY":"SGP4","RCS_SIZE":"LARGE","OBJECT_TYPE":"PAYLOAD","FILE":"3924324","GP_ID":"233141755","PERIOD":"95.438","REF_FRAME":"TEME","DECAY_DATE":null,"MEAN_MOTION":"15.08839954","BSTAR":"0.00021590000000","OBJECT_ID":"2022-001M","EPHEMERIS_TYPE":"0","NORAD_CAT_ID":"50814","MEAN_ANOMALY":"256.5258","APOAPSIS":"540.448"},{"MEAN_ANOMALY":"272.1908","NORAD_CAT_ID":"50815","EPHEMERIS_TYPE":"0","BSTAR":"0.00026046000000","OBJECT_ID":"2022-001N","APOAPSIS":"540.456","OBJECT_TYPE":"PAYLOAD","FILE":"3924324","MEAN_MOTION":"15.08844627","DECAY_DATE":null,"PERIOD":"95.437","REF_FRAME":"TEME","GP_ID":"233143007","MEAN_ELEMENT_THEORY":"SGP4","RCS_SIZE":"LARGE","ARG_OF_PERICENTER":"87.9204","CLASSIFICATION_TYPE":"U","MEAN_MOTION_DOT":"0.00003860","REV_AT_EPOCH":"7796","SITE":"AFETR","TIME_SYSTEM":"UTC","LAUNCH_DATE":"2022-01-06","CENTER_NAME":"EARTH","MEAN_MOTION_DDOT":"0.0000000000000","INCLINATION":"53.2182","ECCENTRICITY":"0.00010470","ELEMENT_SET_NO":"999","COUNTRY_CODE":"US","EPOCH":"2023-06-03T21:18:05.323968","PERIAPSIS":"539.007","TLE_LINE1":"1 50815U 22001N   23154.88756162  .00003860  00000-0  26046-3 0  9990","TLE_LINE2":"2 50815  53.2182  22.2962 0001047  87.9204 272.1908 15.08844627 77960","RA_OF_ASC_NODE":"22.2962","OBJECT_NAME":"STARLINK-3234","SEMIMAJOR_AXIS":"6917.866"},{"MEAN_ELEMENT_THEORY":"SGP4","RCS_SIZE":"LARGE","ARG_OF_PERICENTER":"85.4250","CLASSIFICATION_TYPE":"U","BSTAR":"0.00018414000000","OBJECT_ID":"2022-001P","EPHEMERIS_TYPE":"0","NORAD_CAT_ID":"50816","MEAN_ANOMALY":"274.6877","APOAPSIS":"540.544","OBJECT_TYPE":"PAYLOAD","FILE":"3924324","GP_ID":"233142757","PERIOD":"95.437","REF_FRAME":"TEME","MEAN_MOTION":"15.08845164","DECAY_DATE":null,"SEMIMAJOR_AXIS":"6917.865","OBJECT_NAME":"STARLINK-3342","RA_OF_ASC_NODE":"22.1310","SITE":"AFETR","REV_AT_EPOCH":"7796","MEAN_MOTION_DOT":"0.00002644","MEAN_MOTION_DDOT":"0.0000000000000","CENTER_NAME":"EARTH","LAUNCH_DATE":"2022-01-06","TIME_SYSTEM":"UTC","COUNTRY_CODE":"US","ELEMENT_SET_NO":"999","ECCENTRICITY":"0.00011770","INCLINATION":"53.2180","TLE_LINE1":"1 50816U 22001P   23154.92435473  .00002644  00000-0  18414-3 0  9994","TLE_LINE2":"2 50816  53.2180  22.1310 0001177  85.4250 274.6877 15.08845164 77962","EPOCH":"2023-06-03T22:11:04.248672","PERIAPSIS":"538.915"},{"CENTER_NAME":"EARTH","MEAN_MOTION_DDOT":"0.0000000000000","LAUNCH_DATE":"2022-01-06","TIME_SYSTEM":"UTC","SITE":"AFETR","REV_AT_EPOCH":"7796","MEAN_MOTION_DOT":"0.00000990","TLE_LINE1":"1 50817U 22001Q   23154.88387514  .00000990  00000-0  80248-4 0  9999","TLE_LINE2":"2 50817  53.2188  22.3103 0001112  97.4774 262.6345 15.08842972 77967","PERIAPSIS":"538.967","EPOCH":"2023-06-03T21:12:46.812096","COUNTRY_CODE":"US","ELEMENT_SET_NO":"999","ECCENTRICITY":"0.00011120","INCLINATION":"53.2188","SEMIMAJOR_AXIS":"6917.871","OBJECT_NAME":"STARLINK-3341","RA_OF_ASC_NODE":"22.3103","APOAPSIS":"540.506","BSTAR":"0.00008024800000","OBJECT_ID":"2022-001Q","EPHEMERIS_TYPE":"0","NORAD_CAT_ID":"50817","MEAN_ANOMALY":"262.6345","GP_ID":"233141505","PERIOD":"95.437","REF_FRAME":"TEME","MEAN_MOTION":"15.08842972","DECAY_DATE":null,"OBJECT_TYPE":"PAYLOAD","FILE":"3924324","RCS_SIZE":"LARGE","MEAN_ELEMENT_THEORY":"SGP4","CLASSIFICATION_TYPE":"U","ARG_OF_PERICENTER":"97.4774"}];
